CRE (WAAS/PRN 138)      
1 28868U 05036A   22213.68685007 -.00000069  00000+0  00000+0 0  9990
2 28868   0.6697  93.4108 0002872  17.4233 339.3786  1.00272298 32258
IOR-W (EGNOS/PRN 126)   
1 28899U 05044A   22214.15147073  .00000016  00000+0  00000+0 0  9993
2 28899   3.5328  37.7481 0002807  99.9646 291.4392  1.00272954 61310
QZS-1 (QZSS/PRN 183)    
1 37158U 10045A   22213.48397424 -.00000161  00000+0  00000+0 0  9992
2 37158  42.3789 132.7701 0762828 270.9185 218.8682  1.00246917 43546
GSAT-8 (GAGAN/PRN 127)  
1 37605U 11022A   22214.14972674  .00000091  00000+0  00000+0 0  9996
2 37605   0.0146  97.3521 0002934 156.4302 165.9011  1.00271082 41054
LUCH 5A (SDCM/PRN 140)  
1 37951U 11074B   22214.58703944 -.00000042  00000+0  00000+0 0  9994
2 37951   5.1294  96.8247 0005029  21.7282 211.0503  1.00268272 39004
SES-5 (EGNOS/PRN 136)   
1 38652U 12036A   22213.85268434  .00000039  00000+0  00000+0 0  9996
2 38652   0.0618 283.5310 0002172 209.6151 129.2270  1.00271747 30295
GSAT-10 (GAGAN/PRN 128) 
1 38779U 12051B   22213.87202222 -.00000160  00000+0  00000+0 0  9994
2 38779   0.0540 254.3046 0001269 275.6484 177.4590  1.00272809 35924
LUCH 5B (SDCM/PRN 125)  
1 38977U 12061A   22214.58561829 -.00000130  00000+0  00000+0 0  9992
2 38977   7.3876  62.2766 0005533  69.0546  14.3791  1.00271949 35996
ASTRA 5B (EGNOS/PRN 123)
1 39617U 14011B   22214.14493071  .00000160  00000+0  00000+0 0  9998
2 39617   0.0341  41.1411 0003562  94.8203 258.4104  1.00273453 30686
LUCH 5V (SDCM/PRN 141)  
1 39727U 14023A   22213.86369025 -.00000264  00000+0  00000+0 0  9998
2 39727   1.5996  76.0407 0003280  73.5327 206.4907  1.00274711548316
GSAT-15 (GAGAN/PRN 139) 
1 41028U 15065A   22213.87034135 -.00000252  00000+0  00000+0 0  9991
2 41028   0.0124 115.5735 0003594 351.1442 250.5474  1.00270202 24616
E 117 W B (WAAS/PRN 131)
1 41589U 16038B   22214.53364949 -.00000005  00000+0  00000+0 0  9993
2 41589   0.0084 195.6247 0000100   2.3196 188.2533  1.00271799 22524
SES-15 (WAAS/PRN 133)   
1 42709U 17026A   22213.68249006  .00000065  00000+0  00000+0 0  9992
2 42709   0.0256 343.3937 0000414 134.6295 308.7866  1.00267745 19941
QZS-2 (QZSS/PRN 184)    
1 42738U 17028A   22214.45546207 -.00000112  00000+0  00000+0 0  9999
2 42738  41.6961 263.5209 0755953 269.6713  83.0011  1.00274457 18954
QZS-3 (QZSS/PRN 189)    
1 42917U 17048A   22213.87705580 -.00000343  00000+0  00000+0 0  9992
2 42917   0.0604 161.4350 0001706 347.6244 244.1740  1.00269921 18066
QZS-4 (QZSS/PRN 185)    
1 42965U 17062A   22213.73714385 -.00000314  00000+0  00000+0 0  9997
2 42965  40.7604   1.5370 0746274 268.7736  81.8393  1.00295713 17619
GALAXY 30 (WAAS/PRN 135)
1 46114U 20056C   22214.52540135  .00000043  00000+0  00000+0 0  9990
2 46114   0.0181  82.7412 0002086  49.9275 242.5649  1.00271042  7213
